NORAD_CAT_ID,OBJECT_NAME,OBJECT_TYPE,EPOCH,MEAN_MOTION,ECCENTRICITY,INCLINATION,RA_OF_ASC_NODE,ARG_OF_PERICENTER,MEAN_ANOMALY,BSTAR,MEAN_MOTION_DOT,MEAN_MOTION_DDOT,TLE_LINE0,TLE_LINE1,TLE_LINE2,SEMIMAJOR_AXIS,PERIOD,APOGEE,PERIGEE,DECAYED
52371.0,STARLINK-3798,PAYLOAD,2022-06-28 22:00:00,15.73144684,0.0002578,53.2148,139.1575,24.0146,285.963,0.00029474,0.00040852,0.0,0 STARLINK-3798,1 52371U 22045AS  22179.91667824  .00040852  00000-0  29474-3 0  9993,2 52371  53.2148 139.1575 0002578  24.0146 285.9630 15.73144684  1303,6728.053000000001,91.536,351.652,348.18300000000005,0.0
52371.0,STARLINK-3798,PAYLOAD,2022-06-29 14:00:01,15.73195082,0.0002705,53.2151,135.8594,23.028,104.706,8.6304e-06,5.89e-06,0.0,0 STARLINK-3798,1 52371U 22045AS  22180.58334491  .00000589  00000-0  86304-5 0  9999,2 52371  53.2151 135.8594 0002705  23.0280 104.7060 15.73195082 12092,6727.909000000002,91.533,351.594,347.954,0.0
52371.0,STARLINK-3798,PAYLOAD,2022-06-29 22:00:00,15.73209979,0.0002646,53.2156,134.2094,27.0197,189.6284,0.00021337,0.00029445,0.0,0 STARLINK-3798,1 52371U 22045AS  22180.91667824  .00029445  00000-0  21337-3 0  9990,2 52371  53.2156 134.2094 0002646  27.0197 189.6284 15.73209979  1303,6727.8669999999975,91.533,351.51199999999994,347.952,0.0
52371.0,STARLINK-3798,PAYLOAD,2022-06-30 14:00:01,15.73250059,0.000264,53.2154,130.9107,23.1224,11.4573,-0.00052762,-0.00074193,0.0,0 STARLINK-3798,1 52371U 22045AS  22181.58334491 -.00074193  00000-0 -52762-3 0  9993,2 52371  53.2154 130.9107 0002640  23.1224  11.4573 15.73250059  1309,6727.752,91.53,351.394,347.841,0.0
52371.0,STARLINK-3798,PAYLOAD,2022-06-30 16:00:00,15.73199482,0.0002586,53.2154,130.498,22.3092,124.5271,0.00011489,0.00015534,0.0,0 STARLINK-3798,1 52371U 22045AS  22181.66667824  .00015534  00000-0  11489-3 0  9994,2 52371  53.2154 130.4980 0002586  22.3092 124.5271 15.73199482 12266,6727.897,91.533,351.501,348.022,0.0
52371.0,STARLINK-3798,PAYLOAD,2022-06-30 22:00:00,15.73212659,0.0002563,53.2156,129.2612,24.4151,99.1121,0.00014297,0.00019503,0.0,0 STARLINK-3798,1 52371U 22045AS  22181.91667824  .00019503  00000-0  14297-3 0  9992,2 52371  53.2156 129.2612 0002563  24.4151  99.1121 15.73212659  1306,6727.859,91.532,351.4480000000001,348.0,0.0
52371.0,STARLINK-3798,PAYLOAD,2022-07-01 14:00:01,15.73206616,0.0002555,53.2157,125.9623,19.9969,281.4558,-0.00011395,-0.0001659,0.0,0 STARLINK-3798,1 52371U 22045AS  22182.58334491 -.00016590  00000-0 -11395-3 0  9998,2 52371  53.2157 125.9623 0002555  19.9969 281.4558 15.73206616  1305,6727.876,91.533,351.46,348.022,0.0
52371.0,STARLINK-3798,PAYLOAD,2022-07-01 22:00:00,15.73219335,0.0002531,53.2161,124.3126,21.0564,9.3167,5.8549e-05,7.609999999999999e-05,0.0,0 STARLINK-3798,1 52371U 22045AS  22182.91667824  .00007610  00000-0  58549-4 0  9998,2 52371  53.2161 124.3126 0002531  21.0564   9.3167 15.73219335  1305,6727.84,91.532,351.408,348.00199999999984,0.0
52371.0,STARLINK-3798,PAYLOAD,2022-07-02 14:00:01,15.73200862,0.0002628999999999,53.2175,121.0098,17.8008,190.3886,4.4074e-05,5.568e-05,0.0,0 STARLINK-3798,1 52371U 22045AS  22183.58334491  .00005568  00000-0  44074-4 0  9991,2 52371  53.2175 121.0098 0002629  17.8008 190.3886 15.73200862  1300,6727.893,91.533,351.526,347.98900000000015,0.0
52371.0,STARLINK-3798,PAYLOAD,2022-07-02 22:00:00,15.73378763,0.0002361,53.2163,119.3621,15.9295,281.2406,-0.0027759,-0.00376256,0.0,0 STARLINK-3798,1 52371U 22045AS  22183.91667824 -.00376256  00000-0 -27759-2 0  9993,2 52371  53.2163 119.3621 0002361  15.9295 281.2406 15.73378763  1303,6727.386,91.523,350.839,347.662,0.0
52371.0,STARLINK-3798,PAYLOAD,2022-07-03 00:00:00,15.73322376,0.0002444,53.2166,118.9501,15.2379,34.1979,-0.0026509,-0.00359194,0.0,0 STARLINK-3798,1 52371U 22045AS  22184.00001157 -.00359194  00000-0 -26509-2 0  9999,2 52371  53.2166 118.9501 0002444  15.2379  34.1979 15.73322376 12633,6727.545999999999,91.526,351.056,347.767,0.0
52371.0,STARLINK-3798,PAYLOAD,2022-07-03 14:00:01,15.73222982,0.0002486,53.2158,116.0651,18.7932,96.3566,-0.00064602,-0.00090423,0.0,0 STARLINK-3798,1 52371U 22045AS  22184.58334491 -.00090423  00000-0 -64602-3 0  9996,2 52371  53.2158 116.0651 0002486  18.7932  96.3566 15.73222982 12722,6727.83,91.532,351.367,348.022,0.0
52371.0,STARLINK-3798,PAYLOAD,2022-07-03 22:00:00,15.73164139,0.000251,53.2161,114.4159,21.0661,182.9916,-0.00068577,-0.00095649,0.0,0 STARLINK-3798,1 52371U 22045AS  22184.91667824 -.00095649  00000-0 -68577-3 0  9992,2 52371  53.2161 114.4159 0002510  21.0661 182.9916 15.73164139  1307,6727.996999999999,91.535,351.551,348.1740000000001,0.0
52371.0,STARLINK-3798,PAYLOAD,2022-07-04 14:00:01,15.73106963,0.0002453,53.2158,111.117,15.8275,5.8639,0.00084371,0.00119012,0.0,0 STARLINK-3798,1 52371U 22045AS  22185.58334491  .00119012  00000-0  84371-3 0  9996,2 52371  53.2158 111.1170 0002453  15.8275   5.8639 15.73106963 12889,6728.16,91.539,351.676,348.375,0.0
52371.0,STARLINK-3798,PAYLOAD,2022-07-04 22:00:00,15.73224419,0.0002442,53.2156,109.4682,15.3072,95.2694,5.7417e-05,7.452e-05,0.0,0 STARLINK-3798,1 52371U 22045AS  22185.91667824  .00007452  00000-0  57417-4 0  9998,2 52371  53.2156 109.4682 0002442  15.3072  95.2694 15.73224419  1309,6727.826,91.532,351.333,348.048,0.0
52371.0,STARLINK-3798,PAYLOAD,2022-07-05 14:00:01,15.732772400000002,0.000242,53.2155,106.1682,16.5731,271.9648,-9.3521e-05,-0.00013771,0.0,0 STARLINK-3798,1 52371U 22045AS  22186.58334491 -.00013771  00000-0 -93521-4 0  9992,2 52371  53.2155 106.1682 0002420  16.5731 271.9648 15.73277240 13038,6727.675,91.529,351.168,347.912,0.0
52371.0,STARLINK-3798,PAYLOAD,2022-07-05 22:00:00,15.73281043,0.0002524,53.2163,104.518,20.3096,357.242,-0.00046117,-0.00065081,0.0,0 STARLINK-3798,1 52371U 22045AS  22186.91667824 -.00065081  00000-0 -46117-3 0  9997,2 52371  53.2163 104.5180 0002524  20.3096 357.2420 15.73281043  1303,6727.6640000000025,91.528,351.227,347.831,0.0
52371.0,STARLINK-3798,PAYLOAD,2022-07-06 06:00:00,15.73277476,0.0002743,53.2165,102.8674,19.1793,87.3473,-0.0036887,-0.00491038,0.0,0 STARLINK-3798,1 52371U 22045AS  22187.25001157 -.00491038  00000-0 -36887-2 0  9993,2 52371  53.2165 102.8674 0002743  19.1793  87.3473 15.73277476 13146,6727.674,91.529,351.385,347.694,0.0
52371.0,STARLINK-3798,PAYLOAD,2022-07-06 14:00:01,15.73075114,0.0002513,53.2174,101.2136,18.8536,176.4679,-0.0083732,-0.01052591,0.0,0 STARLINK-3798,1 52371U 22045AS  22187.58334491 -.01052591  00000-0 -83732-2 0  9998,2 52371  53.2174 101.2136 0002513  18.8536 176.4679 15.73075114 13196,6728.251,91.54,351.807,348.425,0.0
52371.0,STARLINK-3798,PAYLOAD,2022-07-06 22:00:00,15.72316276,0.0002367,53.2175,99.5653,16.7721,266.8629,-0.0086757,-0.01055217,0.0,0 STARLINK-3798,1 52371U 22045AS  22187.91667824 -.01055217  00000-0 -86757-2 0  9992,2 52371  53.2175  99.5653 0002367  16.7721 266.8629 15.72316276  1305,6730.416,91.585,353.874,350.68800000000016,0.0
52371.0,STARLINK-3798,PAYLOAD,2022-07-07 04:27:10,15.71682926,0.0001439,53.2167,98.2559,228.2694,131.8203,-0.0014595,-0.00188382,0.0,0 STARLINK-3798,1 52371U 22045AS  22188.18553780 -.00188382  00000-0 -14595-2 0  9997,2 52371  53.2167  98.2559 0001439 228.2694 131.8203 15.71682926 13292,6732.224,91.622,355.05800000000005,353.12,0.0
52371.0,STARLINK-3798,PAYLOAD,2022-07-07 14:00:01,15.70799213,0.0002444,53.2173,96.2719,356.543,100.9803,-0.0092797,-0.01057814,0.0,0 STARLINK-3798,1 52371U 22045AS  22188.58334491 -.01057814  00000-0 -92797-2 0  9993,2 52371  53.2173  96.2719 0002444 356.5430 100.9803 15.70799213 13352,6734.749,91.673,358.26,354.968,0.0
52371.0,STARLINK-3798,PAYLOAD,2022-07-07 21:14:00,15.71696316,0.0004003,53.2171,94.8003,252.6925,107.3656,-0.0012855,-0.00166616,0.0,0 STARLINK-3798,1 52371U 22045AS  22188.88473369 -.00166616  00000-0 -12855-2 0  9991,2 52371  53.2171  94.8003 0004003 252.6925 107.3656 15.71696316 13402,6732.186,91.621,356.746,351.356,0.0
52371.0,STARLINK-3798,PAYLOAD,2022-07-08 14:00:01,15.68514511,9.14e-05,53.2174,91.3469,60.9404,290.5736,-0.0101,-0.01046868,0.0,0 STARLINK-3798,1 52371U 22045AS  22189.58334491 -.01046868  00000-0 -10100-1 0  9998,2 52371  53.2174  91.3469 0000914  60.9404 290.5736 15.68514511  1304,6741.2869999999975,91.807,363.768,362.536,0.0
52371.0,STARLINK-3798,PAYLOAD,2022-07-08 22:00:01,15.67757845,0.0001232,53.2176,89.7104,55.1346,19.2794,-0.010464,-0.01050898,0.0,0 STARLINK-3798,1 52371U 22045AS  22189.91668981 -.01050898  00000-0 -10464-1 0  9990,2 52371  53.2176  89.7104 0001232  55.1346  19.2794 15.67757845  1306,6743.456,91.851,366.152,364.49,0.0
52371.0,STARLINK-3798,PAYLOAD,2022-07-09 06:00:00,15.66999268,0.0001161,53.2171,88.075,83.1396,73.133,-0.010805,-0.01051768,0.0,0 STARLINK-3798,1 52371U 22045AS  22190.25001157 -.01051768  00000-0 -10805-1 0  9991,2 52371  53.2171  88.0750 0001161  83.1396  73.1330 15.66999268 13615,6745.632,91.895,368.28,366.714,0.0
52371.0,STARLINK-3798,PAYLOAD,2022-07-09 14:00:01,15.66237665,0.0001171,53.2171,86.4388,74.4474,162.8389,-0.011105,-0.01048322,0.0,0 STARLINK-3798,1 52371U 22045AS  22190.58334491 -.01048322  00000-0 -11105-1 0  9993,2 52371  53.2171  86.4388 0001171  74.4474 162.8389 15.66237665  1304,6747.819,91.94,370.474,368.893,0.0
52371.0,STARLINK-3798,PAYLOAD,2022-07-09 20:00:01,15.65668112,0.0001321,53.2175,85.2152,63.4376,144.0081,-0.011361,-0.01048101,0.0,0 STARLINK-3798,1 52371U 22045AS  22190.83334491 -.01048101  00000-0 -11361-1 0  9990,2 52371  53.2175  85.2152 0001321  63.4376 144.0081 15.65668112  1305,6749.455,91.974,372.212,370.42800000000005,0.0
52371.0,STARLINK-3798,PAYLOAD,2022-07-10 14:00:01,15.63960059,0.0001151,53.2173,81.5473,73.3039,41.5419,-0.012187,-0.0104958,0.0,0 STARLINK-3798,1 52371U 22045AS  22191.58334491 -.01049580  00000-0 -12187-1 0  9992,2 52371  53.2173  81.5473 0001151  73.3039  41.5419 15.63960059  1304,6754.368,92.074,377.011,375.456,0.0
